COMMENT,ORIGINATOR,NORAD_CAT_ID,OBJECT_NAME,OBJECT_TYPE,CLASSIFICATION_TYPE,INTLDES,EPOCH,EPOCH_MICROSECONDS,MEAN_MOTION,ECCENTRICITY,INCLINATION,RA_OF_ASC_NODE,ARG_OF_PERICENTER,MEAN_ANOMALY,EPHEMERIS_TYPE,ELEMENT_SET_NO,REV_AT_EPOCH,BSTAR,MEAN_MOTION_DOT,MEAN_MOTION_DDOT,FILE,TLE_LINE0,TLE_LINE1,TLE_LINE2,OBJECT_ID,OBJECT_NUMBER,SEMIMAJOR_AXIS,PERIOD,APOGEE,PERIGEE,DECAYED
GENERATED VIA SPACETRACK.ORG API,18 SPCS,57309,STARLINK-30163,PAYLOAD,U,23096V,2024-01-13 11:17:44,102976,15.02534848,0.0001236,43.0035,174.9076,271.027,89.0431,0,999,2841,0.000047885,0.00000443,0,4160809,0 STARLINK-30163,1 57309U 23096V   24013.47064934  .00000443  00000-0  47885-4 0  9998,2 57309  43.0035 174.9076 0001236 271.0270  89.0431 15.02534848 28416,2023-096V,57309,6937.220,95.838,559.943,558.228,1
GENERATED VIA SPACETRACK.ORG API,18 SPCS,57309,STARLINK-30163,PAYLOAD,U,23096V,2024-01-13 12:53:27,798720,15.02533556,0.0000971,43.0024,174.5465,267.4692,92.6039,0,999,2845,0.000091226,0.00001029,0,4160970,0 STARLINK-30163,1 57309U 23096V   24013.53712730  .00001029  00000-0  91226-4 0  9998,2 57309  43.0024 174.5465 0000971 267.4692  92.6039 15.02533556 28457,2023-096V,57309,6937.224,95.838,559.763,558.415,1
GENERATED VIA SPACETRACK.ORG API,18 SPCS,57309,STARLINK-30163,PAYLOAD,U,23096V,2024-01-13 22:27:49,226688,15.02545449,0.0001337,43.0023,172.3787,265.8391,94.2299,0,999,2848,0.000238,0.00003014,0,4161357,0 STARLINK-30163,1 57309U 23096V   24013.93598642  .00003014  00000-0  23800-3 0  9994,2 57309  43.0023 172.3787 0001337 265.8391  94.2299 15.02545449 28487,2023-096V,57309,6937.187,95.837,559.980,558.125,1
GENERATED VIA SPACETRACK.ORG API,18 SPCS,57309,STARLINK-30163,PAYLOAD,U,23096V,2024-01-14 11:13:39,36288,15.02538124,0.0001326,43.0024,169.4887,271.2895,88.7795,0,999,2856,0.000082553,0.00000912,0,4161665,0 STARLINK-30163,1 57309U 23096V   24014.46781292  .00000912  00000-0  82553-4 0  9993,2 57309  43.0024 169.4887 0001326 271.2895  88.7795 15.02538124 28564,2023-096V,57309,6937.210,95.838,559.995,558.155,1
GENERATED VIA SPACETRACK.ORG API,18 SPCS,57309,STARLINK-30163,PAYLOAD,U,23096V,2024-01-14 12:49:22,694016,15.02539233,0.000124,43.0017,169.1266,266.2962,93.7739,0,999,2860,0.00011119,0.00001299,0,4161833,0 STARLINK-30163,1 57309U 23096V   24014.53429044  .00001299  00000-0  11119-3 0  9993,2 57309  43.0017 169.1266 0001240 266.2962  93.7739 15.02539233 28609,2023-096V,57309,6937.207,95.838,559.932,558.211,1
GENERATED VIA SPACETRACK.ORG API,18 SPCS,57309,STARLINK-30163,PAYLOAD,U,23096V,2024-01-14 19:12:16,972416,15.02552693,0.0001269,43.0024,167.683,270.7952,89.2745,0,999,2861,0.00045131,0.00005901,0,4161956,0 STARLINK-30163,1 57309U 23096V   24014.80019644  .00005901  00000-0  45131-3 0  9999,2 57309  43.0024 167.6830 0001269 270.7952  89.2745 15.02552693 28610,2023-096V,57309,6937.165,95.837,559.910,558.150,1
GENERATED VIA SPACETRACK.ORG API,18 SPCS,57309,STARLINK-30163,PAYLOAD,U,23096V,2024-01-14 20:48:00,423648,15.02558774,0.00013,43.0029,167.3222,270.1596,89.9097,0,999,2865,0.00060157,0.00007937,0,4162100,0 STARLINK-30163,1 57309U 23096V   24014.86667157  .00007937  00000-0  60157-3 0  9999,2 57309  43.0029 167.3222 0001300 270.1596  89.9097 15.02558774 28658,2023-096V,57309,6937.146,95.837,559.913,558.110,1
GENERATED VIA SPACETRACK.ORG API,18 SPCS,57309,STARLINK-30163,PAYLOAD,U,23096V,2024-01-15 11:09:34,161408,15.02537992,0.0001381,43.0023,164.0704,263.1636,96.9049,0,999,2871,0.000169,0.0000208,0,4162517,0 STARLINK-30163,1 57309U 23096V   24015.46497872  .00002080  00000-0  16900-3 0  9992,2 57309  43.0023 164.0704 0001381 263.1636  96.9049 15.02537992 28718,2023-096V,57309,6937.210,95.838,560.033,558.117,1
GENERATED VIA SPACETRACK.ORG API,18 SPCS,57309,STARLINK-30163,PAYLOAD,U,23096V,2024-01-15 12:45:17,862336,15.02542263,0.0001396,43.0023,163.7097,261.7855,98.2829,0,999,2875,0.0002232,0.00002813,0,4162722,0 STARLINK-30163,1 57309U 23096V   24015.53145674  .00002813  00000-0  22320-3 0  9997,2 57309  43.0023 163.7097 0001396 261.7855  98.2829 15.02542263 28754,2023-096V,57309,6937.197,95.838,560.031,558.094,1
GENERATED VIA SPACETRACK.ORG API,18 SPCS,57309,STARLINK-30163,PAYLOAD,U,23096V,2024-01-15 20:43:56,135424,15.02551972,0.000141,43.0022,161.9039,259.7115,100.3569,0,999,2880,0.0016651,0.00022371,0,4162957,0 STARLINK-30163,1 57309U 23096V   24015.86384416  .00022371  00000-0  16651-2 0  9992,2 57309  43.0022 161.9039 0001410 259.7115 100.3569 15.02551972 28801,2023-096V,57309,6937.167,95.837,560.011,558.054,1
GENERATED VIA SPACETRACK.ORG API,18 SPCS,57309,STARLINK-30163,PAYLOAD,U,23096V,2024-01-15 20:43:56,135424,15.02551972,0.000141,43.0022,161.9039,259.7115,100.3569,0,999,2877,0.0016651,0.00022371,0,4163046,0 STARLINK-30163,1 57309U 23096V   24015.86384416  .00022371  00000-0  16651-2 0  9992,2 57309  43.0022 161.9039 0001410 259.7115 100.3569 15.02551972 28777,2023-096V,57309,6937.167,95.837,560.011,558.054,1
GENERATED VIA SPACETRACK.ORG API,18 SPCS,57309,STARLINK-30163,PAYLOAD,U,23096V,2024-01-16 09:29:46,383936,15.02533721,0.0001274,43.0024,159.014,263.9981,96.0716,0,999,2885,0.0013935,0.00018669,0,4163343,0 STARLINK-30163,1 57309U 23096V   24016.39567574  .00018669  00000-0  13935-2 0  9996,2 57309  43.0024 159.0140 0001274 263.9981  96.0716 15.02533721 28852,2023-096V,57309,6937.224,95.838,559.972,558.205,1
GENERATED VIA SPACETRACK.ORG API,18 SPCS,57309,STARLINK-30163,PAYLOAD,U,23096V,2024-01-16 12:41:13,835904,15.02536303,0.0001271,43.0026,158.2923,268.4429,91.6267,0,999,2890,0.0017309,0.00023256,0,4163580,0 STARLINK-30163,1 57309U 23096V   24016.52863236  .00023256  00000-0  17309-2 0  9992,2 57309  43.0026 158.2923 0001271 268.4429  91.6267 15.02536303 28905,2023-096V,57309,6937.216,95.838,559.962,558.199,1
GENERATED VIA SPACETRACK.ORG API,18 SPCS,57309,STARLINK-30163,PAYLOAD,U,23096V,2024-01-17 14:12:52,890912,15.02548084,0.0001365,43.0026,152.5125,279.3628,80.706,0,999,2906,0.00099418,0.00013256,0,4164412,0 STARLINK-30163,1 57309U 23096V   24017.59227883  .00013256  00000-0  99418-3 0  9993,2 57309  43.0026 152.5125 0001365 279.3628  80.7060 15.02548084 29069,2023-096V,57309,6937.179,95.837,559.991,558.097,1
GENERATED VIA SPACETRACK.ORG API,18 SPCS,57309,STARLINK-30163,PAYLOAD,U,23096V,2024-01-17 19:00:03,667968,15.02559059,0.0001382,43.0024,151.4282,277.0918,82.9767,0,999,2906,0.0012801,0.00017141,0,4164555,0 STARLINK-30163,1 57309U 23096V   24017.79170912  .00017141  00000-0  12801-2 0  9992,2 57309  43.0024 151.4282 0001382 277.0918  82.9767 15.02559059 29067,2023-096V,57309,6937.146,95.836,559.969,558.052,1
GENERATED VIA SPACETRACK.ORG API,18 SPCS,57309,STARLINK-30163,PAYLOAD,U,23096V,2024-01-17 20:35:47,233248,15.02561085,0.0001383,43.0024,151.0662,275.3688,84.6997,0,999,2910,0.0012417,0.00016621,0,4164693,0 STARLINK-30163,1 57309U 23096V   24017.85818557  .00016621  00000-0  12417-2 0  9998,2 57309  43.0024 151.0662 0001383 275.3688  84.6997 15.02561085 29102,2023-096V,57309,6937.139,95.836,559.964,558.045,1
GENERATED VIA SPACETRACK.ORG API,18 SPCS,57309,STARLINK-30163,PAYLOAD,U,23096V,2024-01-18 10:57:20,818944,15.025387,0.0002352,43.0018,147.8152,284.7971,75.261,0,999,2916,0.00033865,0.00004374,0,4165103,0 STARLINK-30163,1 57309U 23096V   24018.45649096  .00004374  00000-0  33865-3 0  9998,2 57309  43.0018 147.8152 0002352 284.7971  75.2610 15.02538700 29160,2023-096V,57309,6937.208,95.838,560.705,557.442,1
GENERATED VIA SPACETRACK.ORG API,18 SPCS,57309,STARLINK-30163,PAYLOAD,U,23096V,2024-01-18 12:33:04,303008,15.02549494,0.0000725,42.9987,147.4529,234.5452,125.5323,0,999,2920,0.00075425,0.00010003,0,4165274,0 STARLINK-30163,1 57309U 23096V   24018.52296647  .00010003  00000-0  75425-3 0  9990,2 57309  42.9987 147.4529 0000725 234.5452 125.5323 15.02549494 29203,2023-096V,57309,6937.175,95.837,559.543,558.537,1
GENERATED VIA SPACETRACK.ORG API,18 SPCS,57309,STARLINK-30163,PAYLOAD,U,23096V,2024-01-18 14:08:48,42816,15.02550776,0.000133,43.0008,147.0942,280.7311,79.3381,0,999,2918,0.0012041,0.00016106,0,4165400,0 STARLINK-30163,1 57309U 23096V   24018.58944494  .00016106  00000-0  12041-2 0  9990,2 57309  43.0008 147.0942 0001330 280.7311  79.3381 15.02550776 29186,2023-096V,57309,6937.171,95.837,559.959,558.113,1
GENERATED VIA SPACETRACK.ORG API,18 SPCS,57309,STARLINK-30163,PAYLOAD,U,23096V,2024-01-18 14:08:48,42816,15.02550776,0.000133,43.0008,147.0942,280.7311,79.3381,0,999,2921,0.0012041,0.00016106,0,4165541,0 STARLINK-30163,1 57309U 23096V   24018.58944494  .00016106  00000-0  12041-2 0  9990,2 57309  43.0008 147.0942 0001330 280.7311  79.3381 15.02550776 29210,2023-096V,57309,6937.171,95.837,559.959,558.113,1
GENERATED VIA SPACETRACK.ORG API,18 SPCS,57309,STARLINK-30163,PAYLOAD,U,23096V,2024-01-19 10:53:16,127232,15.02553665,0.000099,43.0019,142.3974,251.0795,108.994,0,999,2931,0.0017989,0.00024192,0,4165949,0 STARLINK-30163,1 57309U 23096V   24019.45365888  .00024192  00000-0  17989-2 0  9991,2 57309  43.0019 142.3974 0000990 251.0795 108.9940 15.02553665 29314,2023-096V,57309,6937.162,95.837,559.714,558.340,1
GENERATED VIA SPACETRACK.ORG API,18 SPCS,57309,STARLINK-30163,PAYLOAD,U,23096V,2024-01-19 12:28:59,695104,15.02564043,0.0001192,43.0017,142.0367,270.5041,89.5664,0,999,2935,0.0022875,0.00030856,0,4166138,0 STARLINK-30163,1 57309U 23096V   24019.52013536  .00030856  00000-0  22875-2 0  9993,2 57309  43.0017 142.0367 0001192 270.5041  89.5664 15.02564043 29353,2023-096V,57309,6937.130,95.836,559.822,558.168,1
GENERATED VIA SPACETRACK.ORG API,18 SPCS,57309,STARLINK-30163,PAYLOAD,U,23096V,2024-01-19 18:51:53,920800,15.02580828,0.0001438,43.0017,140.5933,290.473,69.5958,0,999,2939,0.002316,0.00031259,0,4166429,0 STARLINK-30163,1 57309U 23096V   24019.78604075  .00031259  00000-0  23160-2 0  9991,2 57309  43.0017 140.5933 0001438 290.4730  69.5958 15.02580828 29391,2023-096V,57309,6937.079,95.835,559.941,557.946,1
